{"type": "FeatureCollection", "features": [{"type": "Feature", "properties": {"creek_id": "wolf", "name": "Wolf Creek", "main_stem": true, "source": "OpenStreetMap contributors (ODbL)", "osm_way_ids": [1085194145, 1085194146, 1085194147, 1085194148, 1085194149, 1085194154, 1085194155, 1085194156]}, "geometry": {"type": "LineString", "coordinates": [[-121.026834, 39.224021], [-121.02811, 39.223789], [-121.02869, 39.22381], [-121.029258, 39.224021], [-121.030683, 39.22489], [-121.032265, 39.225049], [-121.032793, 39.224975], [-121.033748, 39.224508], [-121.035155, 39.22448], [-121.035489, 39.224268], [-121.038906, 39.223984], [-121.039948, 39.223565], [-121.041867, 39.223347], [-121.042748, 39.223003], [-121.044127, 39.223117], [-121.045244, 39.222825], [-121.047577, 39.223148], [-121.048729, 39.223217], [-121.049171, 39.223095], [-121.050224, 39.222026], [-121.05118, 39.221667], [-121.051989, 39.221084], [-121.052633, 39.220789], [-121.05315, 39.220639], [-121.05411, 39.220843], [-121.056919, 39.22009], [-121.059078, 39.219192], [-121.060096, 39.218014], [-121.06066, 39.216948], [-121.063069, 39.215525], [-121.063654, 39.21545], [-121.064142, 39.215217], [-121.06504, 39.214265], [-121.065467, 39.213226], [-121.068914, 39.209997], [-121.069233, 39.209061], [-121.069249, 39.208486], [-121.069608, 39.2081], [-121.069683, 39.207438], [-121.069708, 39.206865], [-121.06942, 39.205531], [-121.069012, 39.204726], [-121.067835, 39.204096], [-121.067538, 39.203774], [-121.067428, 39.202553], [-121.067017, 39.201799], [-121.066712, 39.200735], [-121.06605, 39.200295], [-121.065757, 39.199921], [-121.065618, 39.199397], [-121.065535, 39.198137], [-121.066838, 39.196979], [-121.066868, 39.196158], [-121.065835, 39.193988], [-121.065309, 39.193668], [-121.064237, 39.193892], [-121.063303, 39.193576], [-121.062381, 39.192799], [-121.060911, 39.192175], [-121.060541, 39.19183], [-121.060514, 39.191082], [-121.060718, 39.190525], [-121.060648, 39.189872], [-121.059473, 39.188421], [-121.059645, 39.18751], [-121.060396, 39.186804], [-121.06046, 39.186292], [-121.060052, 39.185232], [-121.06039, 39.184163], [-121.060396, 39.183386], [-121.060707, 39.182766], [-121.060433, 39.180712], [-121.060728, 39.18003], [-121.060787, 39.179398], [-121.060315, 39.17902], [-121.059586, 39.178787], [-121.059317, 39.178491], [-121.059301, 39.178113], [-121.059854, 39.177535], [-121.060111, 39.175926], [-121.06046, 39.175352], [-121.060133, 39.173368], [-121.06016, 39.172607], [-121.061058, 39.168405], [-121.06071, 39.166832], [-121.060903, 39.166292], [-121.06123, 39.165518], [-121.062888, 39.163409], [-121.063826, 39.162415], [-121.065714, 39.160822], [-121.066482, 39.160772], [-121.067769, 39.160935], [-121.068585, 39.16138], [-121.069046, 39.162365], [-121.070044, 39.161084], [-121.070494, 39.160964], [-121.071047, 39.161051], [-121.071583, 39.161317], [-121.072002, 39.16133], [-121.072978, 39.160431], [-121.072892, 39.160148], [-121.072527, 39.159766], [-121.07249, 39.159462], [-121.072592, 39.159142], [-121.072957, 39.158755], [-121.074689, 39.157661], [-121.075177, 39.157], [-121.076717, 39.155531], [-121.077248, 39.155485], [-121.077688, 39.155718], [-121.078686, 39.155136], [-121.078948, 39.151596], [-121.078825, 39.150664], [-121.079126, 39.150523], [-121.081754, 39.150269], [-121.082312, 39.149104], [-121.082419, 39.147748], [-121.082709, 39.146633], [-121.08199, 39.144307], [-121.082682, 39.143321], [-121.08258, 39.142052], [-121.08235, 39.141682], [-121.082258, 39.140734], [-121.082704, 39.139028], [-121.082628, 39.138674], [-121.08206, 39.138187], [-121.082371, 39.137671], [-121.081888, 39.137014], [-121.081534, 39.136777], [-121.08133, 39.136157], [-121.081454, 39.135566], [-121.082071, 39.134758], [-121.08405, 39.133677], [-121.084957, 39.131371], [-121.085144, 39.128126], [-121.085751, 39.12689], [-121.085815, 39.12612], [-121.086174, 39.125142], [-121.086657, 39.124459], [-121.086791, 39.123993], [-121.086405, 39.12277], [-121.08655, 39.121226], [-121.086647, 39.120668], [-121.087784, 39.118196], [-121.087811, 39.117563], [-121.087569, 39.116456], [-121.087843, 39.11589], [-121.088122, 39.115553], [-121.089495, 39.114725], [-121.090428, 39.113747], [-121.090825, 39.113584], [-121.091255, 39.113593], [-121.09207, 39.113926], [-121.093744, 39.113855], [-121.09604, 39.112469], [-121.096844, 39.11214], [-121.096887, 39.111441], [-121.097306, 39.111004], [-121.098985, 39.110804], [-121.100025, 39.109384], [-121.101173, 39.108785], [-121.101329, 39.108531], [-121.101892, 39.106616], [-121.101662, 39.105767], [-121.101184, 39.105476], [-121.101179, 39.10518], [-121.101983, 39.104402], [-121.103877, 39.103607], [-121.106672, 39.103282], [-121.10848, 39.102516], [-121.109327, 39.102445], [-121.109831, 39.102237], [-121.110159, 39.101767], [-121.109928, 39.101321], [-121.109912, 39.100905], [-121.110379, 39.099619], [-121.11018, 39.099148], [-121.110196, 39.098578], [-121.110668, 39.097941], [-121.112117, 39.096609], [-121.112776, 39.095014], [-121.112782, 39.09446], [-121.11165, 39.093994], [-121.110835, 39.09344], [-121.110116, 39.093249], [-121.10878, 39.093257], [-121.10856, 39.093049], [-121.108383, 39.091525], [-121.107825, 39.090797], [-121.108211, 39.090072], [-121.108254, 39.089701], [-121.106929, 39.088369], [-121.106538, 39.087307], [-121.106892, 39.085825], [-121.10598, 39.085026], [-121.105519, 39.084309], [-121.105304, 39.083789], [-121.105293, 39.08249], [-121.104784, 39.081803], [-121.103716, 39.081407], [-121.102836, 39.080757], [-121.101667, 39.080237], [-121.100884, 39.08022], [-121.100272, 39.080508], [-121.099585, 39.080649], [-121.098421, 39.079925], [-121.09804, 39.0793], [-121.098067, 39.078609], [-121.098668, 39.077472], [-121.0987, 39.076893], [-121.097906, 39.074931], [-121.098175, 39.073566], [-121.098175, 39.072766], [-121.097681, 39.071825], [-121.098164, 39.0708], [-121.098228, 39.070359], [-121.097901, 39.069938], [-121.096844, 39.069113], [-121.096206, 39.067614], [-121.095589, 39.067152], [-121.094511, 39.06524], [-121.093626, 39.064594], [-121.092687, 39.06414], [-121.09053, 39.063861], [-121.08986, 39.06352], [-121.089162, 39.062699], [-121.08883, 39.062487], [-121.090976, 39.061008], [-121.091415, 39.060446], [-121.091491, 39.059579], [-121.091008, 39.058734], [-121.090959, 39.058342], [-121.091147, 39.058105], [-121.092172, 39.057888], [-121.092703, 39.057547], [-121.09332, 39.056243], [-121.093786, 39.055843], [-121.094774, 39.055422], [-121.098952, 39.054601], [-121.099419, 39.05466], [-121.101838, 39.053914], [-121.106532, 39.053044], [-121.107745, 39.052706], [-121.108592, 39.051994], [-121.108748, 39.051594], [-121.108512, 39.050923], [-121.108061, 39.050282], [-121.106881, 39.047899], [-121.106602, 39.047174], [-121.106618, 39.046553], [-121.106801, 39.046224], [-121.107042, 39.046086], [-121.107927, 39.046099], [-121.109059, 39.045582], [-121.10944, 39.044578], [-121.111189, 39.043087], [-121.111532, 39.04297], [-121.111972, 39.043016], [-121.112637, 39.043699], [-121.112911, 39.044061], [-121.112862, 39.045253], [-121.113141, 39.04552], [-121.113662, 39.045607], [-121.114504, 39.045349], [-121.116044, 39.04572], [-121.116285, 39.045615], [-121.11754, 39.044261], [-121.118216, 39.043886], [-121.118565, 39.043845], [-121.119133, 39.044053], [-121.119482, 39.043803], [-121.120002, 39.043857], [-121.121075, 39.043657], [-121.121762, 39.04377], [-121.123103, 39.04372], [-121.123366, 39.043599], [-121.123344, 39.041228], [-121.125539, 39.04007], [-121.126306, 39.039116], [-121.12659, 39.039016], [-121.126611, 39.037612], [-121.126992, 39.037045], [-121.127786, 39.036666], [-121.128527, 39.036487], [-121.130388, 39.034828], [-121.130827, 39.034037]]}}, {"type": "Feature", "properties": {"creek_id": "deer", "name": "Deer Creek", "main_stem": true, "source": "OpenStreetMap contributors (ODbL)", "osm_way_ids": [92766394, 92773965, 92775261, 92777815, 92778870, 92780543, 92784084, 92787052, 92787307, 92787597, 92789387, 92801489, 92804051, 92806373, 92808358, 92810617, 92811318, 92813033, 92816350, 92816982, 92820748, 92821576, 92821586, 92823252, 92824655, 92826994, 92843185, 92844774, 92845278, 92850098, 92851514, 92854881, 92855223, 92855581, 92856369, 92859335, 92859447, 92863031, 92946560, 92947412, 92947975, 92948142, 92950834, 92953170, 92953582, 92955385, 92957284, 92963884, 92978254, 92978485, 92980243, 92980480, 92981664, 92983128, 92999087, 92999434, 92999794, 93000174, 93001813, 93006603, 93008340, 93013381, 93018442, 93024955, 93026501, 93029192, 93037047, 93124970, 93129819, 93179550, 93189682, 93193730, 93293819, 93294254, 93295795, 93300904, 93302485, 93423140, 93425816, 93426820, 93427207, 93427903, 93430021, 93434556, 93435321, 93437044, 93437517, 93440083, 93442234, 93443754, 93443812]}, "geometry": {"type": "LineString", "coordinates": [[-120.88909, 39.295667], [-120.890398, 39.295333], [-120.891382, 39.295572], [-120.891672, 39.294847], [-120.892946, 39.293843], [-120.893618, 39.293008], [-120.894503, 39.292835], [-120.895815, 39.293246], [-120.896013, 39.293218], [-120.898632, 39.292303], [-120.899435, 39.291825], [-120.900156, 39.291218], [-120.900043, 39.289976], [-120.900364, 39.289637], [-120.902059, 39.289043], [-120.90266, 39.288102], [-120.904621, 39.286998], [-120.906621, 39.284813], [-120.907966, 39.283967], [-120.914488, 39.278074], [-120.922052, 39.273589], [-120.927307, 39.271778], [-120.930003, 39.270073], [-120.932827, 39.270628], [-120.933009, 39.270847], [-120.934108, 39.27129], [-120.936306, 39.271149], [-120.937213, 39.270759], [-120.939014, 39.270444], [-120.939563, 39.270233], [-120.940244, 39.270373], [-120.941237, 39.270794], [-120.942311, 39.270827], [-120.943536, 39.270444], [-120.944464, 39.269531], [-120.945527, 39.268755], [-120.947277, 39.268192], [-120.947883, 39.268217], [-120.949769, 39.26891], [-120.950432, 39.268774], [-120.951105, 39.268287], [-120.951815, 39.268313], [-120.953827, 39.269378], [-120.955702, 39.269139], [-120.956913, 39.268548], [-120.957707, 39.268354], [-120.960347, 39.268324], [-120.961331, 39.268454], [-120.962407, 39.268324], [-120.962666, 39.26918], [-120.962925, 39.269302], [-120.963528, 39.269064], [-120.965085, 39.267533], [-120.966687, 39.267399], [-120.967038, 39.267234], [-120.967061, 39.266887], [-120.96645, 39.266349], [-120.966191, 39.265908], [-120.966237, 39.265738], [-120.966641, 39.265636], [-120.968457, 39.265979], [-120.968877, 39.265829], [-120.969884, 39.265071], [-120.971699, 39.267427], [-120.973294, 39.267307], [-120.974836, 39.267951], [-120.975766, 39.268115], [-120.976949, 39.268086], [-120.977705, 39.267545], [-120.978116, 39.26744], [-120.979001, 39.267469], [-120.980245, 39.267283], [-120.982832, 39.26822], [-120.983549, 39.268291], [-120.984075, 39.268178], [-120.984487, 39.267938], [-120.985746, 39.267946], [-120.986875, 39.267592], [-120.987905, 39.26697], [-120.988478, 39.266862], [-120.990812, 39.267389], [-120.992895, 39.267263], [-120.993162, 39.267407], [-120.993467, 39.267985], [-120.993841, 39.268131], [-120.994276, 39.26803], [-120.994589, 39.267409], [-120.995092, 39.267233], [-120.996252, 39.267614], [-120.998907, 39.267871], [-121.000161, 39.268137], [-121.002041, 39.268079], [-121.002719, 39.267844], [-121.00344, 39.267377], [-121.003882, 39.266728], [-121.004126, 39.265622], [-121.004416, 39.265343], [-121.007468, 39.264866], [-121.008505, 39.265061], [-121.009276, 39.263989], [-121.009726, 39.263886], [-121.010207, 39.263928], [-121.011466, 39.263245], [-121.012618, 39.263028], [-121.01451, 39.262887], [-121.015563, 39.262559], [-121.016357, 39.262133], [-121.017239, 39.261054], [-121.017568, 39.260905], [-121.018691, 39.261022], [-121.019456, 39.260911], [-121.020278, 39.261098], [-121.022048, 39.261033], [-121.023139, 39.261315], [-121.024062, 39.260792], [-121.025227, 39.260708], [-121.026665, 39.26016], [-121.029441, 39.260689], [-121.030212, 39.261052], [-121.031028, 39.26088], [-121.032013, 39.26038], [-121.034079, 39.260359], [-121.036453, 39.259366], [-121.038002, 39.259309], [-121.038467, 39.25911], [-121.039291, 39.258378], [-121.039947, 39.257977], [-121.041954, 39.257527], [-121.042343, 39.257176], [-121.04274, 39.256253], [-121.043083, 39.255959], [-121.043518, 39.255982], [-121.043831, 39.256188], [-121.045204, 39.256619], [-121.046273, 39.256485], [-121.046539, 39.256192], [-121.046112, 39.255593], [-121.046043, 39.255074], [-121.046471, 39.254727], [-121.04715, 39.254483], [-121.048157, 39.254521], [-121.049439, 39.255139], [-121.050179, 39.255341], [-121.050682, 39.255345], [-121.051133, 39.2552], [-121.052979, 39.254376], [-121.053559, 39.254391], [-121.053254, 39.254922], [-121.053391, 39.255147], [-121.05494, 39.255097], [-121.056298, 39.253785], [-121.056923, 39.253495], [-121.058091, 39.253182], [-121.058442, 39.253487], [-121.059579, 39.253651], [-121.06096, 39.254071], [-121.062394, 39.254185], [-121.065659, 39.252968], [-121.066598, 39.252446], [-121.068483, 39.252099], [-121.069085, 39.251397], [-121.069909, 39.251122], [-121.070985, 39.251011], [-121.072252, 39.251568], [-121.073289, 39.251523], [-121.073755, 39.251286], [-121.074449, 39.250615], [-121.075578, 39.250409], [-121.076089, 39.250161], [-121.076758, 39.249133], [-121.077464, 39.248809], [-121.077909, 39.248809], [-121.078651, 39.249413], [-121.079322, 39.249655], [-121.081024, 39.249847], [-121.081499, 39.249997], [-121.081918, 39.249974], [-121.082253, 39.249364], [-121.082069, 39.24927], [-121.082055, 39.249106], [-121.082585, 39.248205], [-121.085734, 39.246837], [-121.086108, 39.246337], [-121.085882, 39.245689], [-121.085945, 39.245354], [-121.086793, 39.245332], [-121.087005, 39.245222], [-121.086948, 39.244838], [-121.085882, 39.244262], [-121.085868, 39.243987], [-121.08615, 39.243641], [-121.086948, 39.243147], [-121.087901, 39.242784], [-121.089723, 39.242767], [-121.090521, 39.242635], [-121.091481, 39.24269], [-121.092011, 39.242525], [-121.0935, 39.240685], [-121.094002, 39.240378], [-121.094213, 39.240372], [-121.094496, 39.240592], [-121.095499, 39.241997], [-121.096128, 39.242349], [-121.096728, 39.242277], [-121.097752, 39.241448], [-121.098648, 39.241091], [-121.099263, 39.241239], [-121.100372, 39.242326], [-121.101869, 39.242117], [-121.102265, 39.24266], [-121.102308, 39.244577], [-121.102782, 39.244972], [-121.106808, 39.246261], [-121.108178, 39.246409], [-121.110008, 39.247084], [-121.110954, 39.246984], [-121.112218, 39.246506], [-121.113814, 39.246527], [-121.115261, 39.246005], [-121.115869, 39.245978], [-121.116688, 39.246246], [-121.117175, 39.246224], [-121.117761, 39.245812], [-121.118932, 39.244203], [-121.119462, 39.243867], [-121.119963, 39.24373], [-121.121545, 39.243652], [-121.122718, 39.244135], [-121.124215, 39.244387], [-121.124992, 39.24482], [-121.125479, 39.244793], [-121.126226, 39.244482], [-121.127179, 39.244675], [-121.129184, 39.244808], [-121.129679, 39.244616], [-121.130209, 39.244106], [-121.130577, 39.243156], [-121.130754, 39.243007], [-121.132964, 39.243014], [-121.134292, 39.242877], [-121.134751, 39.24307], [-121.135322, 39.244234], [-121.136388, 39.244757], [-121.137765, 39.244823], [-121.138366, 39.244697], [-121.141911, 39.244649], [-121.14405, 39.245606], [-121.144813, 39.245826], [-121.145116, 39.24621], [-121.145758, 39.246622], [-121.146676, 39.246771], [-121.147404, 39.246617], [-121.148478, 39.245959], [-121.149326, 39.245668], [-121.149785, 39.245311], [-121.150244, 39.244664], [-121.150477, 39.244554], [-121.151127, 39.244565], [-121.151642, 39.244933], [-121.15179, 39.245416], [-121.152426, 39.246004], [-121.153153, 39.24607], [-121.154107, 39.245917], [-121.154601, 39.245632], [-121.154849, 39.245275], [-121.15511, 39.244215], [-121.155428, 39.244006], [-121.155838, 39.243968], [-121.156297, 39.2441], [-121.156615, 39.24443], [-121.156635, 39.244968], [-121.156445, 39.245517], [-121.156515, 39.246055], [-121.157602, 39.247203], [-121.157757, 39.247659], [-121.158166, 39.248181], [-121.158809, 39.248532], [-121.160257, 39.247857], [-121.161458, 39.247484], [-121.16179, 39.247199], [-121.162285, 39.246276], [-121.163577, 39.246535], [-121.164022, 39.246354], [-121.164142, 39.246162], [-121.164142, 39.245409], [-121.163768, 39.244997], [-121.163974, 39.243636], [-121.164136, 39.243388], [-121.165923, 39.243729], [-121.169058, 39.244696], [-121.170633, 39.244417], [-121.17177, 39.244516], [-121.172229, 39.244444], [-121.172914, 39.244143], [-121.173254, 39.243769], [-121.173077, 39.243341], [-121.173176, 39.243039], [-121.173091, 39.242588], [-121.172661, 39.242165], [-121.172463, 39.241726], [-121.172626, 39.241325], [-121.172979, 39.241062], [-121.17473, 39.240771], [-121.175825, 39.240288], [-121.176418, 39.240305], [-121.176658, 39.240508], [-121.177406, 39.241782], [-121.177865, 39.2421], [-121.178148, 39.242056], [-121.178487, 39.241727], [-121.179349, 39.241601], [-121.180712, 39.241184], [-121.181121, 39.241337], [-121.181721, 39.241925], [-121.182307, 39.242062], [-121.183176, 39.241552], [-121.183635, 39.240959], [-121.184864, 39.239888], [-121.186884, 39.239992], [-121.187166, 39.239883], [-121.187308, 39.239608], [-121.187349, 39.23879], [-121.187959, 39.238134], [-121.188385, 39.238172], [-121.189006, 39.238528], [-121.192135, 39.239342], [-121.192684, 39.239315], [-121.193941, 39.238301], [-121.194302, 39.237414], [-121.195054, 39.236878], [-121.195977, 39.236425], [-121.19708, 39.236295], [-121.198041, 39.236363], [-121.198857, 39.236683], [-121.200115, 39.237892], [-121.203753, 39.238443], [-121.205148, 39.239012], [-121.207084, 39.239243], [-121.210733, 39.238711], [-121.212038, 39.238076], [-121.212967, 39.237355], [-121.217187, 39.236618], [-121.218228, 39.23614], [-121.218978, 39.235399], [-121.220144, 39.235596], [-121.221012, 39.235398], [-121.221732, 39.234355], [-121.222509, 39.233816], [-121.222685, 39.233377], [-121.223377, 39.233388], [-121.223765, 39.233086], [-121.225813, 39.232503], [-121.226977, 39.231827], [-121.227669, 39.231838], [-121.229781, 39.23282], [-121.230438, 39.233369], [-121.231978, 39.234149], [-121.233609, 39.23395], [-121.23488, 39.234071], [-121.236631, 39.233504], [-121.237782, 39.233476], [-121.238721, 39.233608], [-121.239159, 39.233443], [-121.239533, 39.23313], [-121.240041, 39.23219], [-121.240274, 39.232163], [-121.241086, 39.232558], [-121.24158, 39.232667], [-121.241849, 39.232557], [-121.242321, 39.231514], [-121.242709, 39.230992], [-121.244601, 39.22975], [-121.245109, 39.229558], [-121.245638, 39.228854], [-121.246118, 39.228673], [-121.246449, 39.22814], [-121.247212, 39.228079], [-121.24902, 39.228666], [-121.249916, 39.228347], [-121.250509, 39.228363], [-121.250933, 39.227836], [-121.251223, 39.227943], [-121.251809, 39.227916], [-121.252042, 39.227834], [-121.252304, 39.227521], [-121.253278, 39.227478], [-121.253574, 39.227588], [-121.255882, 39.229494], [-121.256425, 39.229731], [-121.256927, 39.229759], [-121.257633, 39.229468], [-121.258376, 39.227821], [-121.258814, 39.227492], [-121.259576, 39.227365], [-121.26048, 39.226927], [-121.261328, 39.226707], [-121.261695, 39.226675], [-121.262479, 39.226977], [-121.263312, 39.227076], [-121.265133, 39.226896], [-121.265416, 39.226704], [-121.266511, 39.225304], [-121.266843, 39.22515], [-121.267733, 39.225079], [-121.267888, 39.224849], [-121.268934, 39.22441], [-121.269478, 39.223965], [-121.270332, 39.224147], [-121.273601, 39.223923], [-121.274505, 39.223363], [-121.274914, 39.223374], [-121.276114, 39.225006], [-121.276262, 39.225736], [-121.277377, 39.226653], [-121.278117, 39.227878], [-121.278985, 39.228796], [-121.279126, 39.229334], [-121.279536, 39.229581], [-121.279874, 39.230142], [-121.281649, 39.230597]]}}, {"type": "Feature", "properties": {"creek_id": "deer", "name": "Little Deer Creek", "main_stem": false, "source": "OpenStreetMap contributors (ODbL)", "osm_way_ids": [92813035, 92813914, 92818179, 92863790, 93005585, 93012398, 93301961, 93431724, 936506315, 936506316, 1478479930, 1478479931, 1478479932, 1478479933, 1478479934, 1478479935]}, "geometry": {"type": "LineString", "coordinates": [[-120.950096, 39.253754], [-120.953132, 39.253675], [-120.955437, 39.253427], [-120.956331, 39.252988], [-120.9593, 39.252122], [-120.961521, 39.251635], [-120.962296, 39.251572], [-120.963496, 39.251166], [-120.964833, 39.251148], [-120.966096, 39.25092], [-120.968407, 39.250094], [-120.970408, 39.250042], [-120.971516, 39.250235], [-120.972862, 39.250205], [-120.973345, 39.249911], [-120.97364, 39.249121], [-120.9743, 39.248639], [-120.977315, 39.24769], [-120.978367, 39.247625], [-120.980649, 39.24793], [-120.983479, 39.247438], [-120.985097, 39.247457], [-120.985954, 39.247817], [-120.987847, 39.248154], [-120.989844, 39.248943], [-120.991062, 39.249265], [-120.992103, 39.249199], [-120.993337, 39.249894], [-120.99706, 39.254581], [-120.99819, 39.255763], [-121.000609, 39.256394], [-121.001677, 39.257272], [-121.002722, 39.257249], [-121.004652, 39.257527], [-121.005606, 39.257417], [-121.006369, 39.257584], [-121.007712, 39.258557], [-121.009589, 39.259038], [-121.010107, 39.259292], [-121.010454, 39.260219], [-121.012047, 39.260501], [-121.013236, 39.261346], [-121.013733, 39.261564], [-121.014556, 39.261716], [-121.015403, 39.261712], [-121.01627, 39.262191]]}}]}
